{
    "links": {
        "self": "http://www.neowsapp.com/rest/v1/neo/3825284?api_key=iIulBulltgU6a56xZRHN4H3l9WmuAYTsLGpBGhQ2"
    },
    "id": "3825284",
    "neo_reference_id": "3825284",
    "name": "(2018 MK)",
    "designation": "2018 MK",
    "nasa_jpl_url": "http://ssd.jpl.nasa.gov/sbdb.cgi?sstr=3825284",
    "absolute_magnitude_h": 24.3,
    "estimated_diameter": {
        "kilometers": {
            "estimated_diameter_min": 0.0366906138,
            "estimated_diameter_max": 0.0820427065
        },
        "meters": {
            "estimated_diameter_min": 36.6906137531,
            "estimated_diameter_max": 82.0427064882
        },
        "miles": {
            "estimated_diameter_min": 0.0227984834,
            "estimated_diameter_max": 0.0509789586
        },
        "feet": {
            "estimated_diameter_min": 120.3760332259,
            "estimated_diameter_max": 269.1689931548
        }
    },
    "is_potentially_hazardous_asteroid": false,
    "close_approach_data": [
        {
            "close_approach_date": "2018-06-20",
            "close_approach_date_full": "2018-Jun-20 11:03",
            "epoch_date_close_approach": 1529492580000,
            "relative_velocity": {
                "kilometers_per_second": "17.1113873645",
                "kilometers_per_hour": "61600.9945123638",
                "miles_per_hour": "38276.4623957518"
            },
            "miss_distance": {
                "astronomical": "0.0192345645",
                "lunar": "7.4822455905",
                "kilometers": "2877449.879577615",
                "miles": "1787964.446156487"
            },
            "orbiting_body": "Earth"
        },
        {
            "close_approach_date": "2179-06-11",
            "close_approach_date_full": "2179-Jun-11 08:49",
            "epoch_date_close_approach": 6609372540000,
            "relative_velocity": {
                "kilometers_per_second": "20.0144829758",
                "kilometers_per_hour": "72052.1387128991",
                "miles_per_hour": "44770.3969685789"
            },
            "miss_distance": {
                "astronomical": "0.1759064369",
                "lunar": "68.4276039541",
                "kilometers": "26315228.279529403",
                "miles": "16351524.6226276414"
            },
            "orbiting_body": "Earth"
        }
    ],
    "orbital_data": {
        "orbit_id": "3",
        "orbit_determination_date": "2018-07-24 06:23:58",
        "first_observation_date": "2018-06-08",
        "last_observation_date": "2018-06-18",
        "data_arc_in_days": 10,
        "observations_used": 25,
        "orbit_uncertainty": "8",
        "minimum_orbit_intersection": ".0188481",
        "jupiter_tisserand_invariant": "3.858",
        "epoch_osculation": "2458280.5",
        "eccentricity": ".4616802827830157",
        "semi_major_axis": "1.774497125132922",
        "inclination": "26.70593215490704",
        "ascending_node_longitude": "87.67409055316345",
        "orbital_period": "863.3986733214882",
        "perihelion_distance": ".955246790603906",
        "perihelion_argument": "221.4497256790274",
        "aphelion_distance": "2.593747459661938",
        "perihelion_time": "2458323.330967191811",
        "mean_anomaly": "342.1413343968498",
        "mean_motion": ".4169568602822641",
        "equinox": "J2000",
        "orbit_class": {
            "orbit_class_type": "APO",
            "orbit_class_description": "Near-Earth asteroid orbits which cross the Earth’s orbit similar to that of 1862 Apollo",
            "orbit_class_range": "a (semi-major axis) > 1.0 AU; q (perihelion) < 1.017 AU"
        }
    },
    "is_sentry_object": false
}